[{"OBJECT_NAME":"STARLINK-34667","OBJECT_ID":"2025-150AB","EPOCH":"2026-03-09T14:29:26.974752","MEAN_MOTION":14.9833428,"ECCENTRICITY":0.0003357,"INCLINATION":70.002,"RA_OF_ASC_NODE":134.6792,"ARG_OF_PERICENTER":272.4516,"MEAN_ANOMALY":87.6259,"EPHEMERIS_TYPE":0,"CLASSIFICATION_TYPE":"U","NORAD_CAT_ID":64815,"ELEMENT_SET_NO":999,"REV_AT_EPOCH":3650,"BSTAR":0.00043976,"MEAN_MOTION_DOT":5.159e-5,"MEAN_MOTION_DDOT":0},{"OBJECT_NAME":"FENGYUN 1C DEB","OBJECT_ID":"1999-025DXL","EPOCH":"2026-02-25T04:10:22.321344","MEAN_MOTION":15.11307044,"ECCENTRICITY":0.00591738,"INCLINATION":99.4273,"RA_OF_ASC_NODE":43.0945,"ARG_OF_PERICENTER":165.3437,"MEAN_ANOMALY":194.9519,"EPHEMERIS_TYPE":0,"CLASSIFICATION_TYPE":"U","NORAD_CAT_ID":36283,"ELEMENT_SET_NO":999,"REV_AT_EPOCH":67788,"BSTAR":0.0012995165,"MEAN_MOTION_DOT":0.00022794,"MEAN_MOTION_DDOT":0}]
